[{"OBJECT_NAME":"STARLINK-6357","OBJECT_ID":"2023-078S","EPOCH":"2026-03-09T23:18:07.793856","MEAN_MOTION":14.98327229,"ECCENTRICITY":0.00028075,"INCLINATION":70.0004,"RA_OF_ASC_NODE":323.8294,"ARG_OF_PERICENTER":259.551,"MEAN_ANOMALY":100.5333,"EPHEMERIS_TYPE":0,"CLASSIFICATION_TYPE":"U","NORAD_CAT_ID":56783,"ELEMENT_SET_NO":999,"REV_AT_EPOCH":15321,"BSTAR":-4.3098428e-5,"MEAN_MOTION_DOT":-6.07e-6,"MEAN_MOTION_DDOT":0},{"OBJECT_NAME":"PSLV DEB","OBJECT_ID":"2001-049CM","EPOCH":"2026-03-09T17:27:22.548384","MEAN_MOTION":14.90404456,"ECCENTRICITY":0.00458218,"INCLINATION":98.0898,"RA_OF_ASC_NODE":119.3906,"ARG_OF_PERICENTER":199.2732,"MEAN_ANOMALY":281.2941,"EPHEMERIS_TYPE":0,"CLASSIFICATION_TYPE":"U","NORAD_CAT_ID":27141,"ELEMENT_SET_NO":999,"REV_AT_EPOCH":30717,"BSTAR":0.00021410628,"MEAN_MOTION_DOT":2.065e-5,"MEAN_MOTION_DDOT":0}]
